GSAT-16                 
1 40332U 14078A   17363.57443093  .00000093  00000-0  00000-0 0  9999
2 40332   0.0356  97.6023 0002281 356.4700 265.9594  1.00272888 11135
DIRECTV 14              
1 40333U 14078B   17364.53721279 -.00000119  00000-0  00000-0 0  9992
2 40333   0.0157 316.8687 0000571 262.1794 334.2782  1.00271113 11176
YAMAL 401               
1 40345U 14082A   17363.69006735 -.00000220  00000-0  00000+0 0  9991
2 40345   0.0244 143.7008 0000384 321.2290 331.7615  1.00271309 11411
ASTRA 2G                
1 40364U 14089A   17363.64868987  .00000158  00000-0  00000-0 0  9999
2 40364   0.0288 350.0250 0001462  23.8794 346.1052  1.00271159 10972
FENGYUN 2G              
1 40367U 14090A   17364.58934794 -.00000325  00000-0  00000-0 0  9995
2 40367   0.1711 183.6212 0001346 116.3841 116.0281  1.00274984 11054
INMARSAT 5-F2           
1 40384U 15005A   17364.33064146 -.00000279  00000-0  00000+0 0  9996
2 40384   0.0239  12.4987 0000781 255.4270 255.0703  1.00269675 10680
ABS-3A                  
1 40424U 15010A   17363.73482482 -.00000018  00000-0  00000-0 0  9999
2 40424   0.0245  27.8072 0001984 160.0263 172.1634  1.00269842 10426
EUTELSAT 115 WEST B     
1 40425U 15010B   17364.04497335 -.00000018  00000-0  00000+0 0  9997
2 40425   0.0035 128.3880 0000363 285.6489 305.9665  1.00270038 10443
EXPRESS-AM7             
1 40505U 15012A   17364.61679662  .00000156  00000-0  00000-0 0  9999
2 40505   0.0008   8.7958 0002350 242.3077 110.1726  1.00272875 10377
IRNSS-1D                
1 40547U 15018A   17363.22843816 -.00000308  00000-0  00000+0 0  9990
2 40547  28.7012 291.9332 0018700 183.9267 176.0898  1.00270032 10244
THOR 7                  
1 40613U 15022A   17363.72850021 -.00000001  00000-0  00000-0 0  9991
2 40613   0.0201 263.1452 0002867  10.4607  86.3664  1.00271843  9821
TURKMENALEM52E/MONACOSAT
1 40617U 15023A   17363.58263761  .00000112  00000-0  00000+0 0  9990
2 40617   0.0153  52.0024 0002282 233.8909  74.0870  1.00271584  9845
DIRECTV 15              
1 40663U 15026A   17364.01140148 -.00000096  00000-0  00000+0 0  9998
2 40663   0.0155  66.3882 0000269 160.5823 133.0318  1.00271126  9544
SKY MEXICO-1            
1 40664U 15026B   17363.94496441 -.00000227  00000-0  00000-0 0  9997
2 40664   0.0177   3.8466 0002349 278.0160  78.1157  1.00271415  9566
METEOSAT-11 (MSG-4)     
1 40732U 15034A   17363.37288363 -.00000018  00000-0  00000-0 0  9999
2 40732   1.5120 227.9443 0001610  52.5748 308.1180  1.00271032  9047
STAR ONE C4             
1 40733U 15034B   17363.92064422 -.00000258  00000-0  00000-0 0  9995
2 40733   0.0179   8.2867 0002325 294.6206  57.0750  1.00273049  9041
INTELSAT 34 (IS-34)     
1 40874U 15039A   17363.88051707 -.00000278  00000-0  00000-0 0  9995
2 40874   0.0238  11.6865 0000686 205.0661 143.2427  1.00270137  8681
EUTELSAT 8 WEST B       
1 40875U 15039B   17363.74884843 -.00000058  00000-0  00000-0 0  9992
2 40875   0.0614   8.4726 0003626 275.9095  75.5827  1.00271954  8694
GSAT-6                  
1 40880U 15041A   17363.49648348 -.00000158  00000-0  00000-0 0  9992
2 40880   0.0995 276.8846 0010250 352.7255  90.2778  1.00274138  8651
INMARSAT 5-F3           
1 40882U 15042A   17364.22649167  .00000056  00000-0  00000-0 0  9993
2 40882   0.0230  13.3197 0000632 215.9989 130.6759  1.00270043  8586
TJS-1                   
1 40892U 15046A   17364.66379531 -.00000151  00000-0  00000-0 0  9998
2 40892   0.0515 263.8024 0003290   9.8261 219.6338  1.00271023  8568
EXPRESS-AM8             
1 40895U 15048A   17364.30716285 -.00000105  00000-0  00000+0 0  9993
2 40895   0.0422 198.6726 0000278 263.0905  93.7452  1.00271346  8380
SKY MUSTER (NBN1A)      
1 40940U 15054A   17364.33548441 -.00000272  00000-0  00000+0 0  9996
2 40940   0.0145 330.9967 0001982 300.7138  88.2704  1.00272051  8294
ARSAT 2                 
1 40941U 15054B   17363.95109012 -.00000218  00000-0  00000+0 0  9991
2 40941   0.0181  13.2416 0001914 258.2894  88.4471  1.00269855  8321
MORELOS 3               
1 40946U 15056A   17363.95437168 -.00000035  00000-0  00000+0 0  9991
2 40946   6.1657 328.9790 0003172 358.7164   1.3781  1.00271429  8290
APSTAR 9                
1 40982U 15059A   17364.33056692 -.00000260  00000-0  00000+0 0  9996
2 40982   0.0151 346.6963 0002483 292.0047  81.2709  1.00269213  8166
TURKSAT 4B              
1 40984U 15060A   17363.58822902  .00000123  00000-0  00000-0 0  9999
2 40984   0.0135 326.4545 0002242 307.2179  86.3075  1.00268541  8121
CHINASAT 2C (ZX 2C)     
1 41021U 15063A   17364.58934794 -.00000319  00000-0  00000-0 0  9997
2 41021   0.0503 126.3246 0004525 200.1369  88.3622  1.00271135  8028
GSAT-15                 
1 41028U 15065A   17364.46492956 -.00000252  00000-0  00000-0 0  9998
2 41028   0.0552 274.4605 0002876 341.4647 104.0460  1.00269872  7859
BADR-7 (ARABSAT-6B)     
1 41029U 15065B   17363.65464343  .00000152  00000-0  00000+0 0  9995
2 41029   0.0589 258.0221 0005428 351.5346 110.3902  1.00269945  7915
LAOSAT 1                
1 41034U 15067A   17364.36814803 -.00000337  00000-0  00000-0 0  9999
2 41034   0.0502 199.9444 0001605 351.3170 168.7384  1.00267849  7879
TELSTAR 12V             
1 41036U 15068A   17363.76827164 -.00000111  00000-0  00000+0 0  9998
2 41036   0.0157  34.1978 0002457 250.1265  75.6534  1.00271491  7732
CHINASAT 1C (ZX 1C)     
1 41103U 15073A   17364.39629378 -.00000144  00000-0  00000-0 0  9993
2 41103   0.0486 135.2187 0003605 144.3250  43.6178  1.00271252  7678
ELEKTRO-L 2             
1 41105U 15074A   17364.53603201 -.00000091  00000-0  00000+0 0  9999
2 41105   0.0302 287.2266 0001440 320.9043 120.0071  1.00272474  7534
COSMOS 2513             
1 41121U 15075A   17364.14354730 -.00000131  00000-0  00000+0 0  9990
2 41121   0.0767 101.9992 0002686 182.2792 306.4113  1.00270712  7606
EXPRESS-AMU1            
1 41191U 15082A   17364.05743753  .00000162  00000-0  00000+0 0  9995
2 41191   0.0036 319.1812 0002069 282.0531 274.2478  1.00271847  7517
GAOFEN 4                
1 41194U 15083A   17364.03036774 -.00000328  00000-0  00000-0 0  9991
2 41194   0.0841  92.7075 0004401 147.6120 335.0106  1.00270766  7491
BELINTERSAT-1           
1 41238U 16001A   17364.52688235  .00000112  00000-0  00000-0 0  9990
2 41238   0.0409 102.6295 0001476 134.9457 102.7423  1.00269539  7279
IRNSS-1E                
1 41241U 16003A   17363.72539589 -.00000285  00000-0  00000+0 0  9995
2 41241  29.1071 111.3189 0021320 180.1301 179.7847  1.00275708  7190
INTELSAT 29E (IS-29E)   
1 41308U 16004A   17363.86523528 -.00000275  00000-0  00000+0 0  9990
2 41308   0.0168 351.1673 0001780 289.3265  79.4861  1.00269644  7161
EUTELSAT 9B             
1 41310U 16005A   17363.70171165  .00000069  00000-0  00000+0 0  9993
2 41310   0.0545  89.0004 0005940 197.3386  73.6007  1.00271503  7112
SES-9                   
1 41380U 16013A   17363.42674449 -.00000337  00000-0  00000-0 0  9991
2 41380   0.0260 310.0255 0000872 343.3862  66.5850  1.00269280  6495
EUTELSAT 65 WEST A      
1 41382U 16014A   17363.90736710 -.00000269  00000-0  00000-0 0  9991
2 41382   0.0449   5.6374 0002202 276.0912  78.2515  1.00273588  6564
IRNSS-1F                
1 41384U 16015A   17363.36023990  .00000172  00000-0  00000-0 0  9995
2 41384   3.7570 259.9986 0016828 177.0569 183.3211  1.00280755  6690
IRNSS-1G                
1 41469U 16027A   17364.09362182 -.00000323  00000-0  00000+0 0  9990
2 41469   3.8249 261.5046 0003802 182.3394 178.0351  1.00277974  6209
JCSAT 2B                
1 41471U 16028A   17364.29736405 -.00000160  00000-0  00000+0 0  9998
2 41471   0.0242  14.0764 0002336 266.4501  79.4472  1.00269093  6095
THAICOM 8               
1 41552U 16031A   17364.50652359 -.00000115  00000-0  00000-0 0  9992
2 41552   0.0683  48.5591 0004206 276.6704  34.7459  1.00269946  5736
INTELSAT 31 (IS-31)     
1 41581U 16035A   17362.99280184 -.00000141  00000-0  00000-0 0  9991
2 41581   0.0239 270.2612 0002341 301.3539 148.3774  1.00271013  5676
BEIDOU G7               
1 41586U 16037A   17364.32346293 -.00000241  00000-0  00000-0 0  9992
2 41586   0.9539 330.5431 0004100 296.8481  92.5683  1.00269365  5802
ABS-2A (MONGOLSAT-1)    
1 41588U 16038A   17364.51686647 -.00000079  00000-0  00000-0 0  9995
2 41588   0.0188  66.7673 0001987 136.9626 156.2641  1.00271284  5722
EUTELSAT 117 WEST B     
1 41589U 16038B   17364.05091929 -.00000005  00000-0  00000+0 0  9996
2 41589   0.0108 162.8888 0000284 241.7852 315.3327  1.00272105  5717
BRISAT                  
1 41591U 16039A   17363.30979571 -.00000188  00000-0  00000+0 0  9997
2 41591   0.0221 352.7401 0002318 281.4227  85.8106  1.00269525  5642
ECHOSTAR 18             
1 41592U 16039B   17363.89664038 -.00000275  00000-0  00000+0 0  9998
2 41592   0.0142 310.7700 0002268 332.3831  76.8263  1.00269866  5633
TIANTONG-1 1            
1 41725U 16048A   17364.41076620 -.00000308  00000-0  00000+0 0  9996
2 41725   4.3087 325.7824 0006665 354.7521  27.8049  1.00270689  5282
JCSAT-16                
1 41729U 16050A   17363.27779441 -.00000083  00000-0  00000+0 0  9997
2 41729   0.0250  71.5873 0002138 205.9703  82.4242  1.00272563  5073
INTELSAT 36 (IS-36)     
1 41747U 16053A   17363.53697480 -.00000016  00000-0  00000-0 0  9998
2 41747   0.0111   5.3186 0002395 304.7894  49.8765  1.00271019  4997
INTELSAT 33E (IS-33E)   
1 41748U 16053B   17363.56050767  .00000057  00000-0  00000-0 0  9997
2 41748   0.0147  24.8106 0002279 252.7147  82.4544  1.00272021  5262
INSAT-3DR               
1 41752U 16054A   17364.51872999 -.00000071  00000-0  00000-0 0  9995
2 41752   0.0733 273.3971 0009595   2.6821  83.8141  1.00269873  4817
GSAT-18                 
1 41793U 16060A   17364.51919935 -.00000072  00000-0  00000-0 0  9990
2 41793   0.0642  96.1055 0002927 351.0021 272.9291  1.00271765  4540
